{"type": "FeatureCollection", "features": [{"type": "Feature", "id": "hospital_36d158170ce4", "properties": {"Name": "Koramangala H.C.", "Type": "BBMP Health Centre", "Beds": "", "Address": "Lakshman Rao Nagar, Viveknagar, Bangalore ? 47", "Ward": "148", "area covered": "151", "Services": "", "Staff": "", "Contact": "", "id": "hospital_36d158170ce4", "source_file": "290b2963-4d4c-4201-b372-fb1015aca151.csv", "source_row": 15, "raw_values": ["Koramangala H.C.", "BBMP Health Centre", "", "Lakshman Rao Nagar, Viveknagar, Bangalore ? 47", "148", "151", "", "", "", ""], "match_status": "inferred_facility_match", "matched_name": "UPHC, Koramangala", "osm_type": "W", "osm_id": 1153736760, "matched_address": "5th Main Road, Ambedkarnagar, Bengaluru, 560047", "geocoder": "OpenStreetMap facility matching"}, "geometry": {"type": "Point", "coordinates": [77.6182109, 12.9501568]}}, {"type": "Feature", "id": "hospital_28f1ceb6fb20", "properties": {"Name": "Kumaraswami Layout H. C.", "Type": "BBMP Health Centre", "Beds": "", "Address": "Opp. To Police Station, K.S. Layout, Bangalore", "Ward": "181", "area covered": "182", "Services": "", "Staff": "", "Contact": "22975789", "id": "hospital_28f1ceb6fb20", "source_file": "290b2963-4d4c-4201-b372-fb1015aca151.csv", "source_row": 16, "raw_values": ["Kumaraswami Layout H. C.", "BBMP Health Centre", "", "Opp. To Police Station, K.S. Layout, Bangalore", "181", "182", "", "", "22975789"], "match_status": "inferred_facility_match", "matched_name": "Kumaraswamy Layout UPHC", "osm_type": "W", "osm_id": 1271213565, "matched_address": "", "geocoder": "OpenStreetMap facility matching"}, "geometry": {"type": "Point", "coordinates": [77.5633871, 12.9056735]}}, {"type": "Feature", "id": "hospital_aeeec987229d", "properties": {"Name": "Austin Town Maternity Home", "Type": "BBMP Maternity Home", "Beds": "", "Address": "Near Austin Town Bus stop, Bangalore ? 47", "Ward": "114", "area covered": "115", "Services": "", "Staff": "", "Contact": "22975868", "id": "hospital_aeeec987229d", "source_file": "81174030-2f7d-4e59-90f0-b59352b306a8.csv", "source_row": 2, "raw_values": ["Austin Town Maternity Home", "BBMP Maternity Home", "", "Near Austin Town Bus stop, Bangalore ? 47", "114", "115", "", "", "22975868"], "match_status": "inferred_facility_match", "matched_name": "Austin Town Maternity Home", "osm_type": "W", "osm_id": 1050589714, "matched_address": "North Road, Austin Town, Bengaluru, 560047", "geocoder": "OpenStreetMap facility matching"}, "geometry": {"type": "Point", "coordinates": [77.6152191, 12.9606664]}}, {"type": "Feature", "id": "hospital_f887972d056f", "properties": {"Name": "Azadnagar Maternity Home", "Type": "BBMP Maternity Home", "Beds": "", "Address": "Kasturba Nagar, Mysore Road, Bangalore ? 26", "Ward": "", "area covered": "", "Services": "", "Staff": "", "Contact": "", "id": "hospital_f887972d056f", "source_file": "81174030-2f7d-4e59-90f0-b59352b306a8.csv", "source_row": 3, "raw_values": ["Azadnagar Maternity Home", "BBMP Maternity Home", "", "Kasturba Nagar, Mysore Road, Bangalore ? 26", "", "", "", "", ""], "match_status": "inferred_facility_match", "matched_name": "Azad Nagar Maternity Home", "osm_type": "N", "osm_id": 6944464994, "matched_address": "Bengaluru Urban, 560026", "geocoder": "OpenStreetMap facility matching"}, "geometry": {"type": "Point", "coordinates": [77.5485635, 12.9559644]}}, {"type": "Feature", "id": "hospital_4b69233d835b", "properties": {"Name": "Dasappa Maternity Home", "Type": "BBMP Maternity Home", "Beds": "", "Address": "Near Town Hall, SGPS, Bangalore ? 02", "Ward": "110", "area covered": "119", "Services": "", "Staff": "", "Contact": "22975684", "id": "hospital_4b69233d835b", "source_file": "81174030-2f7d-4e59-90f0-b59352b306a8.csv", "source_row": 7, "raw_values": ["Dasappa Maternity Home", "BBMP Maternity Home", "", "Near Town Hall, SGPS, Bangalore ? 02", "110", "119", "", "", "22975684"], "match_status": "inferred_facility_match", "matched_name": "Dasappa Maternity Hospital", "osm_type": "W", "osm_id": 161984945, "matched_address": "Pehalwan Krishnappa Road, Bengaluru Urban, Bengaluru, 560002", "geocoder": "OpenStreetMap facility matching"}, "geometry": {"type": "Point", "coordinates": [77.5845256, 12.9643477]}}, {"type": "Feature", "id": "hospital_80c11de343a0", "properties": {"Name": "Gavipuram Guttahalli Maternity Home ", "Type": "BBMP Maternity Home", "Beds": "", "Address": "Near Police Station, Kempe Gowda Nagar, Bangalore ? 18", "Ward": "", "area covered": "", "Services": "", "Staff": "", "Contact": "", "id": "hospital_80c11de343a0", "source_file": "81174030-2f7d-4e59-90f0-b59352b306a8.csv", "source_row": 9, "raw_values": ["Gavipuram Guttahalli Maternity Home ", "BBMP Maternity Home", "", "Near Police Station, Kempe Gowda Nagar, Bangalore ? 18", "", "", "", "", ""], "match_status": "inferred_facility_match", "matched_name": "Gavipuramguttahalli Maternity Home", "osm_type": "N", "osm_id": 6944269353, "matched_address": "9th Cross Road, Bengaluru Urban, Bengaluru, 560018", "geocoder": "OpenStreetMap facility matching"}, "geometry": {"type": "Point", "coordinates": [77.5548633, 12.9526505]}}, {"type": "Feature", "id": "hospital_b7f560755e9f", "properties": {"Name": "Magadi Road Maternity Home", "Type": "BBMP Maternity Home", "Beds": "", "Address": "2nd Cross, Near BWSSB Water Tank, Magadi Road, Bangalore ? 23", "Ward": "", "area covered": "", "Services": "", "Staff": "", "Contact": "", "id": "hospital_b7f560755e9f", "source_file": "81174030-2f7d-4e59-90f0-b59352b306a8.csv", "source_row": 12, "raw_values": ["Magadi Road Maternity Home", "BBMP Maternity Home", "", "2nd Cross, Near BWSSB Water Tank, Magadi Road, Bangalore ? 23", "", "", "", "", ""], "match_status": "inferred_facility_match", "matched_name": "Magadi Road Maternity Home", "osm_type": "N", "osm_id": 6947003707, "matched_address": "Magadi Road, Bengaluru Urban, Bengaluru, 560023", "geocoder": "OpenStreetMap facility matching"}, "geometry": {"type": "Point", "coordinates": [77.561823, 12.9741253]}}, {"type": "Feature", "id": "hospital_344c1a31245d", "properties": {"Name": "Palace Guttahalli Maternity Home", "Type": "BBMP Maternity Home", "Beds": "", "Address": "City Corporation Maternity Home. Palace Guttahalli, Bangalore ? 03", "Ward": "", "area covered": "", "Services": "", "Staff": "", "Contact": "22975666", "id": "hospital_344c1a31245d", "source_file": "81174030-2f7d-4e59-90f0-b59352b306a8.csv", "source_row": 17, "raw_values": ["Palace Guttahalli Maternity Home", "BBMP Maternity Home", "", "City Corporation Maternity Home. Palace Guttahalli, Bangalore ? 03", "", "", "", "", "22975666"], "match_status": "inferred_facility_match", "matched_name": "Place Guttahalli Maternity Home", "osm_type": "N", "osm_id": 6939699617, "matched_address": "Sheshadripuram Main Road, Bengaluru Urban, Bengaluru, 560003", "geocoder": "OpenStreetMap facility matching"}, "geometry": {"type": "Point", "coordinates": [77.5819892, 12.9988238]}}, {"type": "Feature", "id": "hospital_255cabb1994e", "properties": {"Name": "H. Siddaiah Road Hospital", "Type": "BBMP Referral Hospital", "Beds": "", "Address": "Next to Lions Eye Hosital, Off J. C. Road, H. Siddaiah Road, Bangalore ? 02", "Ward": "", "area covered": "", "Services": "", "Staff": "", "Contact": "", "id": "hospital_255cabb1994e", "source_file": "2547bb23-9022-4766-a31c-bd5fb2eae796.csv", "source_row": 2, "raw_values": ["H. Siddaiah Road Hospital", "BBMP Referral Hospital", "", "Next to Lions Eye Hosital, Off J. C. Road, H. Siddaiah Road, Bangalore ? 02", "", "", "", "", ""], "match_status": "inferred_facility_match", "matched_name": "H Siddiah Referral Hospital", "osm_type": "N", "osm_id": 12541779301, "matched_address": "H. Siddaiah Road, Hombegowda Nagara, Bengaluru, 560002", "geocoder": "OpenStreetMap facility matching"}, "geometry": {"type": "Point", "coordinates": [77.5824398, 12.9569057]}}, {"type": "Feature", "id": "hospital_288956f926cd", "properties": {"Name": "Hosahalli Referral Hospital", "Type": "BBMP Referral Hospital", "Beds": "", "Address": "Near Jayamunirao Circle, Vijayanagar, 5th Main, M. C. Layout, Vijayanagar, Bangalore ? 40", "Ward": "", "area covered": "", "Services": "", "Staff": "", "Contact": "", "id": "hospital_288956f926cd", "source_file": "2547bb23-9022-4766-a31c-bd5fb2eae796.csv", "source_row": 3, "raw_values": ["Hosahalli Referral Hospital", "BBMP Referral Hospital", "", "Near Jayamunirao Circle, Vijayanagar, 5th Main, M. C. Layout, Vijayanagar, Bangalore ? 40", "", "", "", "", ""], "match_status": "inferred_facility_match", "matched_name": "Goverment Hospital, Hosahalli", "osm_type": "N", "osm_id": 7572526698, "matched_address": "Vijayanagar Water Tank Road, Bengaluru Urban, Bengaluru, 560040", "geocoder": "OpenStreetMap facility matching"}, "geometry": {"type": "Point", "coordinates": [77.5342045, 12.9744928]}}, {"type": "Feature", "id": "hospital_aa95472f02c4", "properties": {"Name": "Banashankari Referral Hospital", "Type": "BBMP Referral Hospital", "Beds": "", "Address": "Near Police Station, 27th Cross, 17th Main, 2nd Stage, Banashankari, Bangalore ? 70", "Ward": "", "area covered": "", "Services": "", "Staff": "", "Contact": "", "id": "hospital_aa95472f02c4", "source_file": "2547bb23-9022-4766-a31c-bd5fb2eae796.csv", "source_row": 7, "raw_values": ["Banashankari Referral Hospital", "BBMP Referral Hospital", "", "Near Police Station, 27th Cross, 17th Main, 2nd Stage, Banashankari, Bangalore ? 70", "", "", "", "", ""], "match_status": "inferred_facility_match", "matched_name": "Banashankari Referral Hospital", "osm_type": "N", "osm_id": 2123630630, "matched_address": "27th Cross Road, Bengaluru Urban, 560070", "geocoder": "OpenStreetMap facility matching"}, "geometry": {"type": "Point", "coordinates": [77.5642974, 12.9231342]}}]}