{"type": "FeatureCollection", "features": [{"type": "Feature", "id": "fire_station_142", "properties": {"OBJECTID": "142", "KGISCode": "29572055428031620000HMFESUNSCRFIS0001", "DepartmentCode": "142", "KGISVillageID": "15684", "KGISWardID": "", "KGISFIRE_STAID": "142", "FIRE_STAName": "Anjanapura Fire Station", "id": "fire_station_142", "coordinate_source": "Original KML point"}, "geometry": {"type": "Point", "coordinates": [77.5632669998641, 12.859067000178]}}, {"type": "Feature", "id": "fire_station_143", "properties": {"OBJECTID": "143", "KGISCode": "29572055428031620000HMFESUNSCRFIS0002", "DepartmentCode": "143", "KGISVillageID": "15721", "KGISWardID": "", "KGISFIRE_STAID": "143", "FIRE_STAName": "Banashanakari Fire Station", "id": "fire_station_143", "coordinate_source": "Original KML point"}, "geometry": {"type": "Point", "coordinates": [77.5619950001617, 12.922951999756]}}, {"type": "Feature", "id": "fire_station_144", "properties": {"OBJECTID": "144", "KGISCode": "29572055436130580000HMFESUNSCRFIS0001", "DepartmentCode": "144", "KGISVillageID": "15514", "KGISWardID": "", "KGISFIRE_STAID": "144", "FIRE_STAName": "Electronics City Fire Station", "id": "fire_station_144", "coordinate_source": "Original KML point"}, "geometry": {"type": "Point", "coordinates": [77.6626951598893, 12.8355330002137]}}, {"type": "Feature", "id": "fire_station_145", "properties": {"OBJECTID": "145", "KGISCode": "29572055458031630000HMFESUNSCRFIS0001", "DepartmentCode": "145", "KGISVillageID": "21159", "KGISWardID": "", "KGISFIRE_STAID": "145", "FIRE_STAName": "Anekal Fire Station", "id": "fire_station_145", "coordinate_source": "Original KML point"}, "geometry": {"type": "Point", "coordinates": [77.6927930004421, 12.7249859997302]}}, {"type": "Feature", "id": "fire_station_146", "properties": {"OBJECTID": "146", "KGISCode": "29572055428031620000HMFESUNSCRFIS0003", "DepartmentCode": "146", "KGISVillageID": "15437", "KGISWardID": "", "KGISFIRE_STAID": "146", "FIRE_STAName": "Yelahanka Fire Station", "id": "fire_station_146", "coordinate_source": "Original KML point"}, "geometry": {"type": "Point", "coordinates": [77.6009479997117, 13.1251330004255]}}, {"type": "Feature", "id": "fire_station_148", "properties": {"OBJECTID": "148", "KGISCode": "29572055428031620000HMFESUNSCRFIS0004", "DepartmentCode": "148", "KGISVillageID": "15520", "KGISWardID": "", "KGISFIRE_STAID": "148", "FIRE_STAName": "Hulimavu Fire Station", "id": "fire_station_148", "coordinate_source": "Original KML point"}, "geometry": {"type": "Point", "coordinates": [77.5987909601949, 12.8722635013209]}}, {"type": "Feature", "id": "fire_station_149", "properties": {"OBJECTID": "149", "KGISCode": "29572055428031620000HMFESUNSCRFIS0005", "DepartmentCode": "149", "KGISVillageID": "15491", "KGISWardID": "", "KGISFIRE_STAID": "149", "FIRE_STAName": "Peenya Fire Station", "id": "fire_station_149", "coordinate_source": "Original KML point"}, "geometry": {"type": "Point", "coordinates": [77.5206689999362, 13.028053000353]}}, {"type": "Feature", "id": "fire_station_151", "properties": {"OBJECTID": "151", "KGISCode": "29572055428031620000HMFESUNSCRFIS0006", "DepartmentCode": "151", "KGISVillageID": "15115", "KGISWardID": "", "KGISFIRE_STAID": "151", "FIRE_STAName": "Rajajinagara Fire Station", "id": "fire_station_151", "coordinate_source": "Original KML point"}, "geometry": {"type": "Point", "coordinates": [77.5486169997517, 12.9804729998742]}}, {"type": "Feature", "id": "fire_station_152", "properties": {"OBJECTID": "152", "KGISCode": "29572055428031620000HMFESUNSCRFIS0007", "DepartmentCode": "152", "KGISVillageID": "21465", "KGISWardID": "", "KGISFIRE_STAID": "152", "FIRE_STAName": "Sarjapur Fire Station", "id": "fire_station_152", "coordinate_source": "Original KML point"}, "geometry": {"type": "Point", "coordinates": [77.6737449000677, 12.9168625998515]}}, {"type": "Feature", "id": "fire_station_153", "properties": {"OBJECTID": "153", "KGISCode": "29572055436129650000HMFESUNSCRFIS0001", "DepartmentCode": "153", "KGISVillageID": "15620", "KGISWardID": "", "KGISFIRE_STAID": "153", "FIRE_STAName": "Sunkadakatte Fire Station", "id": "fire_station_153", "coordinate_source": "Original KML point"}, "geometry": {"type": "Point", "coordinates": [77.4216507378574, 12.9742115158572]}}, {"type": "Feature", "id": "fire_station_154", "properties": {"OBJECTID": "154", "KGISCode": "29572055428031620000HMFESUNSCRFIS0008", "DepartmentCode": "154", "KGISVillageID": "30092", "KGISWardID": "", "KGISFIRE_STAID": "154", "FIRE_STAName": "Bengaluru South Fire Station", "id": "fire_station_154", "coordinate_source": "Original KML point"}, "geometry": {"type": "Point", "coordinates": [77.6108600004574, 12.9724090004274]}}, {"type": "Feature", "id": "fire_station_156", "properties": {"OBJECTID": "156", "KGISCode": "29572055428031620000HMFESUNSCRFIS0009", "DepartmentCode": "156", "KGISVillageID": "21394", "KGISWardID": "", "KGISFIRE_STAID": "156", "FIRE_STAName": "Mahadevapura Fire Station", "id": "fire_station_156", "coordinate_source": "Original KML point"}, "geometry": {"type": "Point", "coordinates": [77.7026689999322, 12.9985899999803]}}, {"type": "Feature", "id": "fire_station_166", "properties": {"OBJECTID": "166", "KGISCode": "29572055428031620000HMFESUNSCRFIS0010", "DepartmentCode": "166", "KGISVillageID": "30092", "KGISWardID": "", "KGISFIRE_STAID": "166", "FIRE_STAName": "Bengaluru Secretariat Fire Station", "id": "fire_station_166", "coordinate_source": "Original KML point"}, "geometry": {"type": "Point", "coordinates": [77.5890869999081, 12.9777659002955]}}, {"type": "Feature", "id": "fire_station_167", "properties": {"OBJECTID": "167", "KGISCode": "29572055428031620000HMFESUNSCRFIS0011", "DepartmentCode": "167", "KGISVillageID": "21427", "KGISWardID": "", "KGISFIRE_STAID": "167", "FIRE_STAName": "Whitefield Fire Station", "id": "fire_station_167", "coordinate_source": "Original KML point"}, "geometry": {"type": "Point", "coordinates": [77.7326397279664, 12.9873559880069]}}, {"type": "Feature", "id": "fire_station_168", "properties": {"OBJECTID": "168", "KGISCode": "29572055428031620000HMFESUNSCRFIS0012", "DepartmentCode": "168", "KGISVillageID": "15577", "KGISWardID": "", "KGISFIRE_STAID": "168", "FIRE_STAName": "Nagarabhavi Fire Station", "id": "fire_station_168", "coordinate_source": "Original KML point"}, "geometry": {"type": "Point", "coordinates": [77.509924953498, 12.9355274831777]}}, {"type": "Feature", "id": "fire_station_169", "properties": {"OBJECTID": "169", "KGISCode": "29572055428031620000HMFESUNSCRFIS0013", "DepartmentCode": "169", "KGISVillageID": "15081", "KGISWardID": "", "KGISFIRE_STAID": "169", "FIRE_STAName": "Bengaluru North Fire Station", "id": "fire_station_169", "coordinate_source": "Original KML point"}, "geometry": {"type": "Point", "coordinates": [77.5630824003806, 12.9625257211168]}}, {"type": "Feature", "id": "fire_station_211", "properties": {"OBJECTID": "211", "KGISCode": "29572055428031620000HMFESUNSCRFIS0014", "DepartmentCode": "211", "KGISVillageID": "15680", "KGISWardID": "", "KGISFIRE_STAID": "211", "FIRE_STAName": "Jayanagara Fire Station", "id": "fire_station_211", "coordinate_source": "Original KML point"}, "geometry": {"type": "Point", "coordinates": [77.6008544597293, 12.9351812793424]}}, {"type": "Feature", "id": "fire_station_213", "properties": {"OBJECTID": "213", "KGISCode": "29572055428031620000HMFESUNSCRFIS0015", "DepartmentCode": "213", "KGISVillageID": "15480", "KGISWardID": "", "KGISFIRE_STAID": "213", "FIRE_STAName": "Yeshawanthapura Fire Station", "id": "fire_station_213", "coordinate_source": "Original KML point"}, "geometry": {"type": "Point", "coordinates": [77.5497576662169, 13.0225579969286]}}, {"type": "Feature", "id": "fire_station_214", "properties": {"OBJECTID": "214", "KGISCode": "29572055428031620000HMFESUNSCRFIS0016", "DepartmentCode": "214", "KGISVillageID": "15146", "KGISWardID": "", "KGISFIRE_STAID": "214", "FIRE_STAName": "Hebbal Fire Station", "id": "fire_station_214", "coordinate_source": "Original KML point"}, "geometry": {"type": "Point", "coordinates": [77.6181394945348, 13.0484551882918]}}, {"type": "Feature", "id": "fire_station_215", "properties": {"OBJECTID": "215", "KGISCode": "29572055428031620000HMFESUNSCRFIS0017", "DepartmentCode": "215", "KGISVillageID": "30092", "KGISWardID": "", "KGISFIRE_STAID": "215", "FIRE_STAName": "Bengaluru High Grounds Fire Station", "id": "fire_station_215", "coordinate_source": "Original KML point"}, "geometry": {"type": "Point", "coordinates": [77.5803038729397, 12.9807227206849]}}, {"type": "Feature", "id": "fire_station_216", "properties": {"OBJECTID": "216", "KGISCode": "29572055428031620000HMFESUNSCRFIS0018", "DepartmentCode": "216", "KGISVillageID": "21404", "KGISWardID": "", "KGISFIRE_STAID": "216", "FIRE_STAName": "Banasawadi Fire Station", "id": "fire_station_216", "coordinate_source": "Original KML point"}, "geometry": {"type": "Point", "coordinates": [77.6459202769109, 13.0115642689608]}}]}